STARLINK-2022           
1 47643U 21012Z   24097.07232042  .00003809  00000+0  27441-3 0  9992
2 47643  53.0537 325.7896 0001293  99.1364 260.9771 15.06407635173848
